      2.10          N: GNSS NAV DATA                        RINEX VERSION / TYPE
fic2rin                                 03/05/2020 00:20:08 PGM / RUN BY / DATE
                                                            END OF HEADER
16 20  3  4 10  0  0.0-1.312051899731e-04-4.206412995700e-12 0.000000000000e+00
    1.200000000000e+01 9.406250000000e+01 3.786943455681e-09 2.815865342746e+00
    4.731118679047e-06 1.147488330025e-02 7.938593626022e-06 5.153731353760e+03
    2.952000000000e+05 7.450580596924e-09 2.564366366507e+00-1.341104507446e-07
    9.796800026673e-01 2.379062500000e+02 6.083842887562e-01-7.661390556240e-09
   -2.250093725435e-11 1.000000000000e+00 2.095000000000e+03 0.000000000000e+00
    2.400000000000e+00 0.000000000000e+00-1.071020960808e-08 1.200000000000e+01
    2.880000000000e+05 4.000000000000e+00
 9 20  3  4 10  0  0.0-1.690923236310e-04-8.299139153678e-12 0.000000000000e+00
    1.300000000000e+01 1.037500000000e+01 4.979493130162e-09 2.301630637503e+00
    5.569308996201e-07 1.692672492936e-03 7.158145308495e-06 5.153771993637e+03
    2.952000000000e+05 0.000000000000e+00 3.657292959903e-01-7.078051567078e-08
    9.529734398089e-01 2.324687500000e+02 1.787606748996e+00-8.131410134442e-09
    8.036049019412e-11 1.000000000000e+00 2.095000000000e+03 0.000000000000e+00
    2.400000000000e+00 0.000000000000e+00 1.396983861923e-09 1.300000000000e+01
    2.880000000000e+05 4.000000000000e+00
 5 20  3  4 10  0  0.0-8.557923138142e-06-5.684341886081e-13 0.000000000000e+00
    6.400000000000e+01-5.109375000000e+01 4.718410826464e-09 2.661828564164e+00
   -2.648681402206e-06 5.781334475614e-03 9.423121809959e-06 5.153614513397e+03
    2.952000000000e+05-7.450580596924e-09-6.959129522764e-01-1.247972249985e-07
    9.520248647084e-01 1.946562500000e+02 7.903370450531e-01-7.903900657759e-09
    2.600108304947e-10 1.000000000000e+00 2.095000000000e+03 0.000000000000e+00
    2.400000000000e+00 0.000000000000e+00-1.117587089539e-08 6.400000000000e+01
    2.880000000000e+05 4.000000000000e+00
10 20  3  4 10  0  0.0-2.658884041011e-04-1.273292582482e-11 0.000000000000e+00
    5.900000000000e+01-4.606250000000e+01 4.402326231701e-09-2.331225577040e+00
   -2.520158886909e-06 5.440251203254e-03 1.001544296741e-05 5.153668109894e+03
    2.952000000000e+05 9.313225746155e-09-6.682714106781e-01-8.568167686462e-08
    9.651152912115e-01 1.891250000000e+02-2.658678347093e+00-7.834969215059e-09
    3.485859485754e-10 1.000000000000e+00 2.095000000000e+03 0.000000000000e+00
    2.400000000000e+00 0.000000000000e+00 1.862645149231e-09 5.900000000000e+01
    2.880000000000e+05 4.000000000000e+00
 6 20  3  4 10  0  0.0-2.230852842331e-04-8.867573342286e-12 0.000000000000e+00
    8.500000000000e+01-8.159375000000e+01 4.186602960246e-09-3.873035677196e-02
   -4.418194293976e-06 1.933790044859e-03 5.355104804039e-06 5.153762132645e+03
    2.952000000000e+05-1.676380634308e-08-1.714805208634e+00-5.215406417847e-08
    9.784262833363e-01 2.825000000000e+02-1.107088200702e+00-8.020334079107e-09
    2.500104139373e-11 1.000000000000e+00 2.095000000000e+03 0.000000000000e+00
    2.400000000000e+00 0.000000000000e+00 4.656612873077e-09 8.500000000000e+01
    2.880000000000e+05 4.000000000000e+00
14 20  3  4 10  0  0.0-2.854131162167e-05 2.501110429876e-12 0.000000000000e+00
    3.300000000000e+01 5.312500000000e+00 4.793056792911e-09 1.649467490942e+00
    7.264316082001e-08 1.103504328057e-02 7.594004273415e-06 5.153614515305e+03
    2.952000000000e+05-1.937150955200e-07 4.609003518125e-01-2.235174179077e-07
    9.607304239470e-01 2.360937500000e+02-1.927839654946e+00-8.071407635097e-09
    2.535819912792e-11 1.000000000000e+00 2.095000000000e+03 0.000000000000e+00
    2.400000000000e+00 0.000000000000e+00-9.778887033463e-09 3.300000000000e+01
    2.880000000000e+05 4.000000000000e+00
 8 20  3  4 10  0  0.0-2.589309588075e-05-1.364242052659e-12 0.000000000000e+00
    8.900000000000e+01 3.587500000000e+01 4.380539609915e-09 2.098958281329e+00
    1.853331923485e-06 5.253343842924e-03 3.313645720482e-06 5.153637306213e+03
    2.952000000000e+05-3.166496753693e-08-2.775622558358e+00 6.705522537231e-08
    9.701719099771e-01 3.205625000000e+02-1.562461359816e-01-8.257129656879e-09
    9.714690370133e-11 1.000000000000e+00 2.095000000000e+03 0.000000000000e+00
    3.400000000000e+00 0.000000000000e+00 5.122274160385e-09 8.900000000000e+01
    2.880000000000e+05 4.000000000000e+00
13 20  3  4 10  0  0.0-8.348375558853e-06 2.842170943040e-12 0.000000000000e+00
    5.300000000000e+01 7.625000000000e+00 4.736625870908e-09 1.088664075823e+00
    4.507601261139e-07 4.153152811341e-03 7.120892405510e-06 5.153654806137e+03
    2.952000000000e+05-8.195638656616e-08 5.072650255787e-01 8.754432201385e-08
    9.681114849521e-01 2.471250000000e+02 1.144547686891e+00-8.091408468212e-09
    4.714482091388e-11 1.000000000000e+00 2.095000000000e+03 0.000000000000e+00
    2.400000000000e+00 0.000000000000e+00-1.117587089539e-08 5.300000000000e+01
    2.880000000000e+05 4.000000000000e+00
11 20  3  4 10  0  0.0-3.437702544034e-04 1.080024958355e-11 0.000000000000e+00
    6.500000000000e+01-5.228125000000e+01 5.853458105740e-09-7.205743205499e-01
   -2.840533852577e-06 1.588378951419e-02 3.237277269363e-06 5.153716180801e+03
    2.952000000000e+05-2.067536115646e-07-2.175788940926e+00-7.450580596924e-09
    9.119959618696e-01 2.947500000000e+02 1.965010339162e+00-9.201097548360e-09
    1.625067690592e-10 1.000000000000e+00 2.095000000000e+03 0.000000000000e+00
    2.400000000000e+00 0.000000000000e+00-1.257285475731e-08 6.500000000000e+01
    2.880000000000e+05 4.000000000000e+00
27 20  3  4 10  0  0.0-2.287188544869e-04-1.091393642128e-11 0.000000000000e+00
    7.000000000000e+01 2.862500000000e+01 4.193746114930e-09 1.916981966199e+00
    1.451000571251e-06 7.973022875376e-03 3.557652235031e-06 5.153663326263e+03
    2.952000000000e+05-1.844018697739e-07-2.762019247405e+00 6.332993507385e-08
    9.785622879043e-01 3.200312500000e+02 5.124441242347e-01-8.219270937054e-09
    1.160762636137e-10 1.000000000000e+00 2.095000000000e+03 0.000000000000e+00
    2.400000000000e+00 0.000000000000e+00 1.396983861923e-09 7.000000000000e+01
    2.880000000000e+05 4.000000000000e+00
30 20  3  4 10  0  0.0-1.674792729318e-04-8.867573342286e-12 0.000000000000e+00
    3.700000000000e+01 1.346875000000e+01 5.035209736696e-09-9.857914760690e-01
    5.792826414108e-07 4.314316669479e-03 8.229166269302e-06 5.153677618027e+03
    2.952000000000e+05 7.264316082001e-08 1.464296028139e+00-1.266598701477e-07
    9.386779316122e-01 2.089375000000e+02-2.931267812442e+00-8.211770624636e-09
   -4.896632535828e-10 1.000000000000e+00 2.095000000000e+03 0.000000000000e+00
    2.400000000000e+00 0.000000000000e+00 3.725290298462e-09 3.700000000000e+01
    2.880000000000e+05 4.000000000000e+00
26 20  3  4 10  0  0.0 1.607099547982e-04 7.617018127348e-12 0.000000000000e+00
    4.300000000000e+01 8.378125000000e+01 4.539117643898e-09-2.577102442067e+00
    4.310160875320e-06 4.687467706390e-03 8.283182978630e-06 5.153583408356e+03
    2.952000000000e+05 1.862645149231e-09 2.443912039843e+00 9.313225746155e-09
    9.478072236096e-01 2.157812500000e+02 2.011416362308e-01-8.074622054705e-09
   -7.143154683922e-11 1.000000000000e+00 2.095000000000e+03 0.000000000000e+00
    2.400000000000e+00 0.000000000000e+00 7.450580596924e-09 4.300000000000e+01
    2.880000000000e+05 4.000000000000e+00
20 20  3  4 10  0  0.0 5.278792232275e-04 0.000000000000e+00 0.000000000000e+00
    2.800000000000e+01-5.293750000000e+01 5.152714631247e-09-7.702368373759e-01
   -2.831220626831e-06 5.033026332967e-03 9.248033165932e-06 5.153631572723e+03
    2.952000000000e+05-5.960464477539e-08-7.962915268640e-01-8.009374141693e-08
    9.332467633937e-01 1.869375000000e+02 2.609761460594e+00-8.309631843806e-09
    3.053698627377e-10 1.000000000000e+00 2.095000000000e+03 0.000000000000e+00
    2.400000000000e+00 0.000000000000e+00-8.847564458847e-09 2.800000000000e+01
    2.880000000000e+05 4.000000000000e+00
22 20  3  4 10  0  0.0-7.853000424802e-04-2.273736754432e-13 0.000000000000e+00
    6.500000000000e+01-6.175000000000e+01 5.305220983749e-09 9.909145932388e-01
   -3.267079591751e-06 7.139123044908e-03 9.631738066673e-06 5.153560314178e+03
    2.952000000000e+05-3.352761268616e-08-7.485454634431e-01-1.266598701477e-07
    9.299788765073e-01 1.815000000000e+02-1.212678461908e+00-8.367134239012e-09
    3.200133298397e-10 1.000000000000e+00 2.095000000000e+03 0.000000000000e+00
    2.400000000000e+00 0.000000000000e+00-1.816079020500e-08 6.500000000000e+01
    2.880000000000e+05 4.000000000000e+00
29 20  3  4 10  0  0.0-4.811817780137e-05-9.322320693173e-12 0.000000000000e+00
    1.200000000000e+02 1.865625000000e+01 3.938021177246e-09 2.267027051211e+00
    9.946525096893e-07 1.148694311269e-03 3.883615136147e-06 5.153621393204e+03
    2.952000000000e+05 2.048909664154e-08-2.692565849615e+00 2.048909664154e-08
    9.859416402211e-01 3.175937500000e+02 1.883415152875e+00-7.968903365383e-09
    1.350056235261e-10 1.000000000000e+00 2.095000000000e+03 0.000000000000e+00
    3.400000000000e+00 0.000000000000e+00-1.024454832077e-08 1.200000000000e+02
    2.880000000000e+05 4.000000000000e+00
21 20  3  4 10  0  0.0-3.253063187003e-05 5.229594535194e-12 0.000000000000e+00
    7.600000000000e+01-6.646875000000e+01 4.616263714484e-09-2.094268438069e+00
   -2.978369593620e-06 2.486542332917e-02 5.308538675308e-06 5.153551582336e+03
    2.952000000000e+05 2.440065145493e-07-1.778437791438e+00 4.228204488754e-07
    9.518015400232e-01 2.644062500000e+02-1.355596180948e+00-7.941759377584e-09
    9.178953768839e-11 1.000000000000e+00 2.095000000000e+03 0.000000000000e+00
    2.400000000000e+00 0.000000000000e+00-1.024454832077e-08 7.600000000000e+01
    2.880000000000e+05 4.000000000000e+00
